[{"OBJECT_NAME":"HAWK-C","OBJECT_ID":"2018-099AT","EPOCH":"2026-03-09T16:08:34.251360","MEAN_MOTION":15.26407167,"ECCENTRICITY":0.00403625,"INCLINATION":97.4027,"RA_OF_ASC_NODE":122.6817,"ARG_OF_PERICENTER":277.4052,"MEAN_ANOMALY":82.2601,"EPHEMERIS_TYPE":0,"CLASSIFICATION_TYPE":"U","NORAD_CAT_ID":43799,"ELEMENT_SET_NO":999,"REV_AT_EPOCH":39872,"BSTAR":0.00035662773,"MEAN_MOTION_DOT":9.431e-5,"MEAN_MOTION_DDOT":0},{"OBJECT_NAME":"STARLINK-32787","OBJECT_ID":"2025-018D","EPOCH":"2026-03-09T23:22:59.641824","MEAN_MOTION":15.30210617,"ECCENTRICITY":0.00012012,"INCLINATION":53.16,"RA_OF_ASC_NODE":308.1582,"ARG_OF_PERICENTER":76.7518,"MEAN_ANOMALY":283.3617,"EPHEMERIS_TYPE":0,"CLASSIFICATION_TYPE":"U","NORAD_CAT_ID":62809,"ELEMENT_SET_NO":999,"REV_AT_EPOCH":6321,"BSTAR":0.00082936007,"MEAN_MOTION_DOT":0.00024292,"MEAN_MOTION_DDOT":0}]
